start=new Date('2022-10-20T00:00:00.000Z').valueOf();
sats=[{"MEAN_MOTION_DDOT":"0.0000000000000","PERIAPSIS":"546.264","PERIOD":"95.593","TLE_LINE2":"2 48287  53.0545 237.4693 0001410  73.0261 287.0883 15.06391239 82355","OBJECT_ID":"2021-036M","APOAPSIS":"548.217","MEAN_ANOMALY":"287.0883","OBJECT_NAME":"STARLINK-2566","MEAN_MOTION_DOT":"-0.00000188","MEAN_MOTION":"15.06391239","TIME_SYSTEM":"UTC","ELEMENT_SET_NO":"999","LAUNCH_DATE":"2021-04-29","FILE":"3621777","OBJECT_TYPE":"PAYLOAD","REF_FRAME":"TEME","CENTER_NAME":"EARTH","COUNTRY_CODE":"US","ARG_OF_PERICENTER":"73.0261","CLASSIFICATION_TYPE":"U","NORAD_CAT_ID":"48287","BSTAR":"0.00000628440000","GP_ID":"215532322","RCS_SIZE":"LARGE","SITE":"AFETR","TLE_LINE1":"1 48287U 21036M   22292.08127006 -.00000188  00000-0  62844-5 0  9999","RA_OF_ASC_NODE":"237.4693","MEAN_ELEMENT_THEORY":"SGP4","EPHEMERIS_TYPE":"0","ECCENTRICITY":"0.00014100","EPOCH":"2022-10-19T01:57:01.733184","DECAY_DATE":null,"SEMIMAJOR_AXIS":"6925.375","REV_AT_EPOCH":"8235","INCLINATION":"53.0545"},{"EPHEMERIS_TYPE":"0","ECCENTRICITY":"0.00016160","EPOCH":"2022-10-19T06:36:59.286816","INCLINATION":"53.0552","DECAY_DATE":null,"SEMIMAJOR_AXIS":"6925.378","REV_AT_EPOCH":"8180","COUNTRY_CODE":"US","ARG_OF_PERICENTER":"66.4524","CLASSIFICATION_TYPE":"U","NORAD_CAT_ID":"48288","BSTAR":"0.00002023800000","GP_ID":"215579128","RCS_SIZE":"LARGE","SITE":"AFETR","RA_OF_ASC_NODE":"236.5796","MEAN_ELEMENT_THEORY":"SGP4","TLE_LINE1":"1 48288U 21036N   22292.27568619  .00000020  00000-0  20238-4 0  9994","TIME_SYSTEM":"UTC","MEAN_MOTION":"15.06390288","LAUNCH_DATE":"2021-04-29","ELEMENT_SET_NO":"999","CENTER_NAME":"EARTH","FILE":"3623062","REF_FRAME":"TEME","OBJECT_TYPE":"PAYLOAD","MEAN_MOTION_DDOT":"0.0000000000000","TLE_LINE2":"2 48288  53.0552 236.5796 0001616  66.4524 293.6635 15.06390288 81804","PERIOD":"95.593","PERIAPSIS":"546.124","MEAN_ANOMALY":"293.6635","OBJECT_NAME":"STARLINK-2562","APOAPSIS":"548.362","OBJECT_ID":"2021-036N","MEAN_MOTION_DOT":"0.00000020"},{"TLE_LINE1":"1 48289U 21036P   22292.07388546 -.00001058  00000-0 -52158-4 0  9992","RA_OF_ASC_NODE":"237.4956","MEAN_ELEMENT_THEORY":"SGP4","SITE":"AFETR","RCS_SIZE":"LARGE","BSTAR":"-0.00005215800000","GP_ID":"215579378","CLASSIFICATION_TYPE":"U","NORAD_CAT_ID":"48289","COUNTRY_CODE":"US","ARG_OF_PERICENTER":"79.6986","REV_AT_EPOCH":"8177","SEMIMAJOR_AXIS":"6925.373","DECAY_DATE":null,"INCLINATION":"53.0536","EPOCH":"2022-10-19T01:46:23.703744","ECCENTRICITY":"0.00017270","EPHEMERIS_TYPE":"0","MEAN_MOTION_DOT":"-0.00001058","OBJECT_ID":"2021-036P","APOAPSIS":"548.434","OBJECT_NAME":"STARLINK-2545","MEAN_ANOMALY":"280.4198","PERIOD":"95.593","PERIAPSIS":"546.042","TLE_LINE2":"2 48289  53.0536 237.4956 0001727  79.6986 280.4198 15.06392157 81777","MEAN_MOTION_DDOT":"0.0000000000000","OBJECT_TYPE":"PAYLOAD","REF_FRAME":"TEME","FILE":"3623062","CENTER_NAME":"EARTH","ELEMENT_SET_NO":"999","LAUNCH_DATE":"2021-04-29","MEAN_MOTION":"15.06392157","TIME_SYSTEM":"UTC"},{"TIME_SYSTEM":"UTC","MEAN_MOTION":"15.06393641","CENTER_NAME":"EARTH","FILE":"3623062","REF_FRAME":"TEME","OBJECT_TYPE":"PAYLOAD","LAUNCH_DATE":"2021-04-29","ELEMENT_SET_NO":"999","TLE_LINE2":"2 48290  53.0551 236.6078 0001348  80.1139 280.0002 15.06393641 81801","PERIAPSIS":"546.300","PERIOD":"95.593","MEAN_MOTION_DDOT":"0.0000000000000","MEAN_MOTION_DOT":"0.00000594","MEAN_ANOMALY":"280.0002","OBJECT_NAME":"STARLINK-2540","APOAPSIS":"548.167","OBJECT_ID":"2021-036Q","EPHEMERIS_TYPE":"0","ECCENTRICITY":"0.00013480","EPOCH":"2022-10-19T06:27:42.518304","INCLINATION":"53.0551","SEMIMAJOR_AXIS":"6925.368","DECAY_DATE":null,"REV_AT_EPOCH":"8180","BSTAR":"0.00005878300000","GP_ID":"215580629","COUNTRY_CODE":"US","ARG_OF_PERICENTER":"80.1139","CLASSIFICATION_TYPE":"U","NORAD_CAT_ID":"48290","MEAN_ELEMENT_THEORY":"SGP4","RA_OF_ASC_NODE":"236.6078","TLE_LINE1":"1 48290U 21036Q   22292.26924211  .00000594  00000-0  58783-4 0  9992","RCS_SIZE":"LARGE","SITE":"AFETR"},{"CENTER_NAME":"EARTH","OBJECT_TYPE":"PAYLOAD","REF_FRAME":"TEME","FILE":"3623062","LAUNCH_DATE":"2021-04-29","ELEMENT_SET_NO":"999","TIME_SYSTEM":"UTC","MEAN_MOTION":"15.06396605","MEAN_MOTION_DOT":"-0.00000493","OBJECT_NAME":"STARLINK-2555","MEAN_ANOMALY":"287.4595","OBJECT_ID":"2021-036R","APOAPSIS":"548.265","TLE_LINE2":"2 48291  53.0548 236.6233 0001503  72.6558 287.4595 15.06396605 81806","PERIOD":"95.592","PERIAPSIS":"546.183","MEAN_MOTION_DDOT":"0.0000000000000","INCLINATION":"53.0548","REV_AT_EPOCH":"8180","SEMIMAJOR_AXIS":"6925.359","DECAY_DATE":null,"EPOCH":"2022-10-19T06:22:24.732192","EPHEMERIS_TYPE":"0","ECCENTRICITY":"0.00015030","MEAN_ELEMENT_THEORY":"SGP4","RA_OF_ASC_NODE":"236.6233","TLE_LINE1":"1 48291U 21036R   22292.26556403 -.00000493  00000-0 -14216-4 0  9990","SITE":"AFETR","RCS_SIZE":"LARGE","BSTAR":"-0.00001421600000","GP_ID":"215580880","NORAD_CAT_ID":"48291","CLASSIFICATION_TYPE":"U","ARG_OF_PERICENTER":"72.6558","COUNTRY_CODE":"US"},{"RA_OF_ASC_NODE":"237.0576","MEAN_ELEMENT_THEORY":"SGP4","TLE_LINE1":"1 48292U 21036S   22292.21029774 -.00001268  00000-0 -66302-4 0  9996","SITE":"AFETR","RCS_SIZE":"LARGE","GP_ID":"215594110","BSTAR":"-0.00006630200000","NORAD_CAT_ID":"48292","CLASSIFICATION_TYPE":"U","COUNTRY_CODE":"US","ARG_OF_PERICENTER":"65.6175","INCLINATION":"53.0551","REV_AT_EPOCH":"8237","DECAY_DATE":null,"SEMIMAJOR_AXIS":"6925.401","EPOCH":"2022-10-19T05:02:49.724736","ECCENTRICITY":"0.00015730","EPHEMERIS_TYPE":"0","MEAN_MOTION_DOT":"-0.00001268","OBJECT_NAME":"STARLINK-2542","MEAN_ANOMALY":"294.4978","OBJECT_ID":"2021-036S","APOAPSIS":"548.355","TLE_LINE2":"2 48292  53.0551 237.0576 0001573  65.6175 294.4978 15.06383014 82376","PERIAPSIS":"546.176","PERIOD":"95.593","MEAN_MOTION_DDOT":"0.0000000000000","CENTER_NAME":"EARTH","OBJECT_TYPE":"PAYLOAD","REF_FRAME":"TEME","FILE":"3623498","LAUNCH_DATE":"2021-04-29","ELEMENT_SET_NO":"999","TIME_SYSTEM":"UTC","MEAN_MOTION":"15.06383014"},{"TLE_LINE2":"2 48293  53.0543 234.8857 0001407  70.4533 289.6608 15.06407651 81866","PERIAPSIS":"546.216","PERIOD":"95.592","MEAN_MOTION_DDOT":"0.0000000000000","MEAN_MOTION_DOT":"-0.00000632","MEAN_ANOMALY":"289.6608","OBJECT_NAME":"STARLINK-2550","OBJECT_ID":"2021-036T","APOAPSIS":"548.165","TIME_SYSTEM":"UTC","MEAN_MOTION":"15.06407651","CENTER_NAME":"EARTH","FILE":"3623738","REF_FRAME":"TEME","OBJECT_TYPE":"PAYLOAD","LAUNCH_DATE":"2021-04-29","ELEMENT_SET_NO":"999","BSTAR":"-0.00002354300000","GP_ID":"215621162","COUNTRY_CODE":"US","ARG_OF_PERICENTER":"70.4533","CLASSIFICATION_TYPE":"U","NORAD_CAT_ID":"48293","RA_OF_ASC_NODE":"234.8857","MEAN_ELEMENT_THEORY":"SGP4","TLE_LINE1":"1 48293U 21036T   22292.65626917 -.00000632  00000-0 -23543-4 0  9991","RCS_SIZE":"LARGE","SITE":"AFETR","ECCENTRICITY":"0.00014070","EPHEMERIS_TYPE":"0","EPOCH":"2022-10-19T15:45:01.656288","INCLINATION":"53.0543","SEMIMAJOR_AXIS":"6925.325","DECAY_DATE":null,"REV_AT_EPOCH":"8186"},{"MEAN_MOTION":"15.06396468","TIME_SYSTEM":"UTC","ELEMENT_SET_NO":"999","LAUNCH_DATE":"2021-04-29","OBJECT_TYPE":"PAYLOAD","REF_FRAME":"TEME","FILE":"3623738","CENTER_NAME":"EARTH","MEAN_MOTION_DDOT":"0.0000000000000","PERIAPSIS":"546.086","PERIOD":"95.592","TLE_LINE2":"2 48294  53.0539 235.1931 0001644  76.2590 283.8582 15.06396468 81858","APOAPSIS":"548.363","OBJECT_ID":"2021-036U","OBJECT_NAME":"STARLINK-2533","MEAN_ANOMALY":"283.8582","MEAN_MOTION_DOT":"0.00001550","EPOCH":"2022-10-19T14:04:10.640928","ECCENTRICITY":"0.00016440","EPHEMERIS_TYPE":"0","REV_AT_EPOCH":"8185","DECAY_DATE":null,"SEMIMAJOR_AXIS":"6925.359","INCLINATION":"53.0539","CLASSIFICATION_TYPE":"U","NORAD_CAT_ID":"48294","COUNTRY_CODE":"US","ARG_OF_PERICENTER":"76.2590","GP_ID":"215620414","BSTAR":"0.00012294000000","SITE":"AFETR","RCS_SIZE":"LARGE","TLE_LINE1":"1 48294U 21036U   22292.58623427  .00001550  00000-0  12294-3 0  9995","RA_OF_ASC_NODE":"235.1931","MEAN_ELEMENT_THEORY":"SGP4"},{"ELEMENT_SET_NO":"999","LAUNCH_DATE":"2021-04-29","FILE":"3623062","OBJECT_TYPE":"PAYLOAD","REF_FRAME":"TEME","CENTER_NAME":"EARTH","MEAN_MOTION":"15.06399619","TIME_SYSTEM":"UTC","APOAPSIS":"548.308","OBJECT_ID":"2021-036V","MEAN_ANOMALY":"299.2983","OBJECT_NAME":"STARLINK-2535","MEAN_MOTION_DOT":"0.00000492","MEAN_MOTION_DDOT":"0.0000000000000","PERIAPSIS":"546.122","PERIOD":"95.592","TLE_LINE2":"2 48295  53.0547 236.7088 0001578  60.8164 299.2983 15.06399619 81802","DECAY_DATE":null,"SEMIMAJOR_AXIS":"6925.350","REV_AT_EPOCH":"8180","INCLINATION":"53.0547","EPHEMERIS_TYPE":"0","ECCENTRICITY":"0.00015780","EPOCH":"2022-10-19T06:01:10.015968","RCS_SIZE":"LARGE","SITE":"AFETR","TLE_LINE1":"1 48295U 21036V   22292.25081037  .00000492  00000-0  51957-4 0  9999","RA_OF_ASC_NODE":"236.7088","MEAN_ELEMENT_THEORY":"SGP4","ARG_OF_PERICENTER":"60.8164","COUNTRY_CODE":"US","CLASSIFICATION_TYPE":"U","NORAD_CAT_ID":"48295","GP_ID":"215580381","BSTAR":"0.00005195700000"},{"RCS_SIZE":"LARGE","SITE":"AFETR","RA_OF_ASC_NODE":"235.2330","MEAN_ELEMENT_THEORY":"SGP4","TLE_LINE1":"1 48296U 21036W   22292.57886055  .00002751  00000-0  20355-3 0  9995","COUNTRY_CODE":"US","ARG_OF_PERICENTER":"84.7692","CLASSIFICATION_TYPE":"U","NORAD_CAT_ID":"48296","GP_ID":"215620916","BSTAR":"0.00020355000000","INCLINATION":"53.0530","SEMIMAJOR_AXIS":"6925.362","DECAY_DATE":null,"REV_AT_EPOCH":"8185","EPHEMERIS_TYPE":"0","ECCENTRICITY":"0.00014130","EPOCH":"2022-10-19T13:53:33.551520","MEAN_ANOMALY":"275.3458","OBJECT_NAME":"STARLINK-2546","APOAPSIS":"548.205","OBJECT_ID":"2021-036W","MEAN_MOTION_DOT":"0.00002751","MEAN_MOTION_DDOT":"0.0000000000000","TLE_LINE2":"2 48296  53.0530 235.2330 0001413  84.7692 275.3458 15.06395669 81856","PERIOD":"95.592","PERIAPSIS":"546.248","LAUNCH_DATE":"2021-04-29","ELEMENT_SET_NO":"999","CENTER_NAME":"EARTH","FILE":"3623738","OBJECT_TYPE":"PAYLOAD","REF_FRAME":"TEME","TIME_SYSTEM":"UTC","MEAN_MOTION":"15.06395669"}];
